NORAD_CAT_ID,OBJECT_NAME,OBJECT_TYPE,EPOCH,MEAN_MOTION,ECCENTRICITY,INCLINATION,RA_OF_ASC_NODE,ARG_OF_PERICENTER,MEAN_ANOMALY,BSTAR,MEAN_MOTION_DOT,MEAN_MOTION_DDOT,TLE_LINE0,TLE_LINE1,TLE_LINE2,SEMIMAJOR_AXIS,PERIOD,APOGEE,PERIGEE,DECAYED
54191.0,STARLINK-4619,PAYLOAD,2023-01-26 14:00:01,15.08801942,0.0001418,53.2172,63.5157,89.7558,107.9721,0.0022069,0.00034973,0.0,0 STARLINK-4619,1 54191U 22141AL  23026.58334491  .00034973  00000-0  22069-2 0  9997,2 54191  53.2172  63.5157 0001418  89.7558 107.9721 15.08801942  1304,6917.996999999999,95.44,540.8430000000001,538.881,0.0
54191.0,STARLINK-4619,PAYLOAD,2023-01-26 22:00:00,15.0880211,0.0001406,53.2173,62.0175,99.1801,110.119,0.0035238,0.00056182,0.0,0 STARLINK-4619,1 54191U 22141AL  23026.91667824  .00056182  00000-0  35238-2 0  9991,2 54191  53.2173  62.0175 0001406  99.1801 110.1190 15.08802110 14467,6917.996,95.44,540.8340000000001,538.889,0.0
54191.0,STARLINK-4619,PAYLOAD,2023-01-27 08:12:17,15.08836679,0.0001551,53.2195,60.1092,105.0905,255.0259,3.0123000000000003e-05,1.91e-06,0.0,0 STARLINK-4619,1 54191U 22141AL  23027.34187371  .00000191  00000-0  30123-4 0  9992,2 54191  53.2195  60.1092 0001551 105.0905 255.0259 15.08836679 14520,6917.891,95.438,540.8290000000001,538.683,0.0
54191.0,STARLINK-4619,PAYLOAD,2023-01-27 19:19:59,15.08842556,0.0001652,53.2202,58.0293,94.3463,265.7718,3.9431e-05,3.4e-06,0.0,0 STARLINK-4619,1 54191U 22141AL  23027.80555101  .00000340  00000-0  39431-4 0  9990,2 54191  53.2202  58.0293 0001652  94.3463 265.7718 15.08842556 14360,6917.8730000000005,95.437,540.88,538.595,0.0
54191.0,STARLINK-4619,PAYLOAD,2023-01-28 08:03:04,15.08845489,0.0001377,53.2198,55.6496,92.3783,267.7367,6.7635e-05,7.89e-06,0.0,0 STARLINK-4619,1 54191U 22141AL  23028.33546769  .00000789  00000-0  67635-4 0  9993,2 54191  53.2198  55.6496 0001377  92.3783 267.7367 15.08845489 14673,6917.864,95.437,540.681,538.776,0.0
54191.0,STARLINK-4619,PAYLOAD,2023-01-28 19:10:46,15.08844432,0.0001434,53.2186,53.5675,98.1524,261.9631,-1.3353e-05,-5e-06,0.0,0 STARLINK-4619,1 54191U 22141AL  23028.79914910 -.00000500  00000-0 -13353-4 0  9991,2 54191  53.2186  53.5675 0001434  98.1524 261.9631 15.08844432 14517,6917.867,95.437,540.724,538.74,0.0
54191.0,STARLINK-4619,PAYLOAD,2023-01-29 01:32:19,15.08839739,0.0001474,53.2186,52.3779,93.0658,267.0502,5.0566e-05,5.17e-06,0.0,0 STARLINK-4619,1 54191U 22141AL  23029.06411132  .00000517  00000-0  50566-4 0  9993,2 54191  53.2186  52.3779 0001474  93.0658 267.0502 15.08839739 14782,6917.881,95.438,540.766,538.726,0.0
54191.0,STARLINK-4619,PAYLOAD,2023-01-29 07:53:51,15.08840659,0.0001516,53.2193,51.1889,91.2726,268.8439,4.8615e-05,4.86e-06,0.0,0 STARLINK-4619,1 54191U 22141AL  23029.32907091  .00000486  00000-0  48615-4 0  9993,2 54191  53.2193  51.1889 0001516  91.2726 268.8439 15.08840659 14592,6917.878,95.438,540.792,538.695,0.0
54191.0,STARLINK-4619,PAYLOAD,2023-01-30 07:44:38,15.08843384,0.0001495,53.2198,46.7285,92.8144,267.3019,-4.19e-08,-2.89e-06,0.0,0 STARLINK-4619,1 54191U 22141AL  23030.32267017 -.00000289  00000-0 -41900-7 0  9998,2 54191  53.2198  46.7285 0001495  92.8144 267.3019 15.08843384 14972,6917.87,95.437,540.769,538.701,0.0
54191.0,STARLINK-4619,PAYLOAD,2023-01-31 01:13:53,15.088369,0.000149,53.2196,43.4572,94.4705,265.6457,1.68e-05,-2.1e-07,0.0,0 STARLINK-4619,1 54191U 22141AL  23031.05131360 -.00000021  00000-0  16800-4 0  9991,2 54191  53.2196  43.4572 0001490  94.4705 265.6457 15.08836900 15085,6917.89,95.438,540.786,538.724,0.0
54191.0,STARLINK-4619,PAYLOAD,2023-01-31 10:46:11,15.08842568,0.0001584,53.2201,41.6734,101.203,258.9141,6.1623e-05,6.93e-06,0.0,0 STARLINK-4619,1 54191U 22141AL  23031.44874826  .00000693  00000-0  61623-4 0  9992,2 54191  53.2201  41.6734 0001584 101.2030 258.9141 15.08842568 14917,6917.873,95.437,540.833,538.642,0.0
54191.0,STARLINK-4619,PAYLOAD,2023-02-01 01:04:40,15.08836824,0.0001444,53.2194,38.9971,100.6299,259.4856,2.6502e-05,1.34e-06,0.0,0 STARLINK-4619,1 54191U 22141AL  23032.04491316  .00000134  00000-0  26502-4 0  9995,2 54191  53.2194  38.9971 0001444 100.6299 259.4856 15.08836824 15238,6917.89,95.438,540.754,538.756,0.0
54191.0,STARLINK-4619,PAYLOAD,2023-02-01 05:50:49,15.08850875,0.0001717,53.2195,38.105,106.9173,253.2008,-6.8672e-05,-1.381e-05,0.0,0 STARLINK-4619,1 54191U 22141AL  23032.24362763 -.00001381  00000-0 -68672-4 0  9991,2 54191  53.2195  38.1050 0001717 106.9173 253.2008 15.08850875 15268,6917.847,95.437,540.9,538.524,0.0
54191.0,STARLINK-4619,PAYLOAD,2023-02-02 00:55:27,15.08837332,0.000147,53.2189,34.5369,99.2569,260.8589,-1.3845e-05,-5.08e-06,0.0,0 STARLINK-4619,1 54191U 22141AL  23033.03851582 -.00000508  00000-0 -13845-4 0  9993,2 54191  53.2189  34.5369 0001470  99.2569 260.8589 15.08837332 15387,6917.889,95.438,540.77,538.737,0.0
54191.0,STARLINK-4619,PAYLOAD,2023-02-02 08:52:23,15.0883745,0.0001344,53.2191,33.0502,91.2079,268.9068,-2.1469e-05,-6.3e-06,0.0,0 STARLINK-4619,1 54191U 22141AL  23033.36971694 -.00000630  00000-0 -21469-4 0  9993,2 54191  53.2191  33.0502 0001344  91.2079 268.9068 15.08837450 15204,6917.888,95.438,540.683,538.823,0.0
54191.0,STARLINK-4619,PAYLOAD,2023-02-03 07:07:47,15.08827732,0.0001503,53.2197,28.8878,91.2126,268.9039,0.00036143,5.467e-05,0.0,0 STARLINK-4619,1 54191U 22141AL  23034.29707244  .00005467  00000-0  36143-3 0  9999,2 54191  53.2197  28.8878 0001503  91.2126 268.9039 15.08827732 15578,6917.918,95.438,540.823,538.743,0.0
54191.0,STARLINK-4619,PAYLOAD,2023-02-04 08:33:57,15.08840212,0.0001364,53.2188,24.1297,82.3047,277.81,8.5461e-05,1.072e-05,0.0,0 STARLINK-4619,1 54191U 22141AL  23035.35691496  .00001072  00000-0  85461-4 0  9994,2 54191  53.2188  24.1297 0001364  82.3047 277.8100 15.08840212 15734,6917.88,95.438,540.688,538.801,0.0
54191.0,STARLINK-4619,PAYLOAD,2023-02-04 21:17:02,15.08847276,0.0001375,53.219,21.7502,85.3157,274.7992,2.074e-06,-2.55e-06,0.0,0 STARLINK-4619,1 54191U 22141AL  23035.88683325 -.00000255  00000-0  20740-5 0  9997,2 54191  53.2190  21.7502 0001375  85.3157 274.7992 15.08847276 15581,6917.858,95.437,540.674,538.772,0.0
54191.0,STARLINK-4619,PAYLOAD,2023-02-05 08:24:44,15.08846373,0.0001309,53.2185,19.6683,89.3162,270.798,-1.4565e-06,-3.11e-06,0.0,0 STARLINK-4619,1 54191U 22141AL  23036.35051302 -.00000311  00000-0 -14565-5 0  9996,2 54191  53.2185  19.6683 0001309  89.3162 270.7980 15.08846373 15656,6917.861,95.437,540.631,538.82,0.0
54191.0,STARLINK-4619,PAYLOAD,2023-02-06 03:29:22,15.08843791,0.0001376,53.2193,16.0984,93.8295,266.2854,5.0946e-05,5.23e-06,0.0,0 STARLINK-4619,1 54191U 22141AL  23037.14539366  .00000523  00000-0  50946-4 0  9990,2 54191  53.2193  16.0984 0001376  93.8295 266.2854 15.08843791 16002,6917.869,95.437,540.686,538.782,0.0
54191.0,STARLINK-4619,PAYLOAD,2023-02-06 08:15:31,15.08847798,0.0001418,53.2198,15.2056,98.4818,261.6334,6.1106e-05,6.85e-06,0.0,0 STARLINK-4619,1 54191U 22141AL  23037.34411071  .00000685  00000-0  61106-4 0  9993,2 54191  53.2198  15.2056 0001418  98.4818 261.6334 15.08847798 15807,6917.857,95.437,540.703,538.741,0.0
54191.0,STARLINK-4619,PAYLOAD,2023-02-07 03:20:09,15.08825609,0.0001608,53.2197,11.6376,109.729,250.3875,0.00032368,4.865e-05,0.0,0 STARLINK-4619,1 54191U 22141AL  23038.13899398  .00004865  00000-0  32368-3 0  9994,2 54191  53.2197  11.6376 0001608 109.7290 250.3875 15.08825609 16153,6917.924,95.438,540.902,538.677,0.0
54191.0,STARLINK-4619,PAYLOAD,2023-02-07 06:30:54,15.08852725,0.0001343,53.2195,11.0454,88.0776,272.037,9.4842e-05,1.222e-05,0.0,0 STARLINK-4619,1 54191U 22141AL  23038.27146646  .00001222  00000-0  94842-4 0  9990,2 54191  53.2195  11.0454 0001343  88.0776 272.0370 15.08852725 16178,6917.841,95.437,540.636,538.777,0.0
54191.0,STARLINK-4619,PAYLOAD,2023-02-08 07:57:04,15.08857284,0.0001284,53.2192,6.2875,99.272,260.8417,0.00013312,1.832e-05,0.0,0 STARLINK-4619,1 54191U 22141AL  23039.33130056  .00001832  00000-0  13312-3 0  9995,2 54191  53.2192   6.2875 0001284  99.2720 260.8417 15.08857284 16335,6917.828,95.436,540.581,538.804,0.0
54191.0,STARLINK-4619,PAYLOAD,2023-02-09 04:37:06,15.08845516,0.0001104,53.2198,2.4241,91.1205,268.9914,1.4015e-05,-6.5e-07,0.0,0 STARLINK-4619,1 54191U 22141AL  23040.19243412 -.00000065  00000-0  14015-4 0  9992,2 54191  53.2198   2.4241 0001104  91.1205 268.9914 15.08845516 16466,6917.864,95.437,540.492,538.965,0.0
54191.0,STARLINK-4619,PAYLOAD,2023-02-09 07:47:52,15.08850937,0.0001069,53.2198,1.8279,87.4746,272.6369,2.4627e-05,1.04e-06,0.0,0 STARLINK-4619,1 54191U 22141AL  23040.32490960  .00000104  00000-0  24627-4 0  9992,2 54191  53.2198   1.8279 0001069  87.4746 272.6369 15.08850937 16254,6917.847,95.437,540.451,538.972,0.0
54191.0,STARLINK-4619,PAYLOAD,2023-02-10 01:17:08,15.08837807,0.0001112,53.2197,358.5567,101.6444,258.4673,-0.00010274,-1.922e-05,0.0,0 STARLINK-4619,1 54191U 22141AL  23041.05356508 -.00001922  00000-0 -10274-3 0  9995,2 54191  53.2197 358.5567 0001112 101.6444 258.4673 15.08837807 16361,6917.887,95.438,540.521,538.983,0.0
54191.0,STARLINK-4619,PAYLOAD,2023-02-10 04:27:52,15.08857077,0.000115,53.2192,357.9615,109.7571,250.3545,8.8282e-05,1.118e-05,0.0,0 STARLINK-4619,1 54191U 22141AL  23041.18602856  .00001118  00000-0  88282-4 0  9999,2 54191  53.2192 357.9615 0001150 109.7571 250.3545 15.08857077 16387,6917.828,95.436,540.489,538.898,0.0
54191.0,STARLINK-4619,PAYLOAD,2023-02-11 02:43:17,15.08850776,0.0001414,53.2199,353.8,60.1941,299.9191,0.00012708,1.736e-05,0.0,0 STARLINK-4619,1 54191U 22141AL  23042.11339472  .00001736  00000-0  12708-3 0  9999,2 54191  53.2199 353.8000 0001414  60.1941 299.9191 15.08850776 16757,6917.847,95.437,540.691,538.734,0.0
54191.0,STARLINK-4619,PAYLOAD,2023-02-11 04:18:38,15.08867941,0.0001058,53.2196,353.5019,128.4973,231.6114,0.00024949,3.688e-05,0.0,0 STARLINK-4619,1 54191U 22141AL  23042.17961736  .00003688  00000-0  24949-3 0  9997,2 54191  53.2196 353.5019 0001058 128.4973 231.6114 15.08867941 16534,6917.795,95.436,540.392,538.928,0.0
